[{"OBJECT_NAME":"STARLINK-31498","OBJECT_ID":"2024-045M","EPOCH":"2025-10-31T17:15:08.934624","MEAN_MOTION":15.27574657,"ECCENTRICITY":0.0001647,"INCLINATION":43.0005,"RA_OF_ASC_NODE":101.185,"ARG_OF_PERICENTER":268.9405,"MEAN_ANOMALY":91.1258,"EPHEMERIS_TYPE":0,"CLASSIFICATION_TYPE":"U","NORAD_CAT_ID":59189,"ELEMENT_SET_NO":999,"REV_AT_EPOCH":9343,"BSTAR":-7.4403e-5,"MEAN_MOTION_DOT":-2.309e-5,"MEAN_MOTION_DDOT":0},{"OBJECT_NAME":"STARLINK-31563","OBJECT_ID":"2024-045N","EPOCH":"2025-10-31T19:29:49.931808","MEAN_MOTION":15.27584091,"ECCENTRICITY":0.0001198,"INCLINATION":43.0031,"RA_OF_ASC_NODE":100.1726,"ARG_OF_PERICENTER":264.4067,"MEAN_ANOMALY":95.6648,"EPHEMERIS_TYPE":0,"CLASSIFICATION_TYPE":"U","NORAD_CAT_ID":59190,"ELEMENT_SET_NO":999,"REV_AT_EPOCH":9345,"BSTAR":-0.00017461,"MEAN_MOTION_DOT":-5.064e-5,"MEAN_MOTION_DDOT":0},{"OBJECT_NAME":"STARLINK-31551","OBJECT_ID":"2024-045P","EPOCH":"2025-10-31T19:13:51.635712","MEAN_MOTION":15.27588608,"ECCENTRICITY":0.0001178,"INCLINATION":43.0006,"RA_OF_ASC_NODE":96.6569,"ARG_OF_PERICENTER":269.3212,"MEAN_ANOMALY":90.7505,"EPHEMERIS_TYPE":0,"CLASSIFICATION_TYPE":"U","NORAD_CAT_ID":59191,"ELEMENT_SET_NO":999,"REV_AT_EPOCH":9349,"BSTAR":-6.7661e-5,"MEAN_MOTION_DOT":-2.124e-5,"MEAN_MOTION_DDOT":0},{"OBJECT_NAME":"STARLINK-31536","OBJECT_ID":"2024-045Q","EPOCH":"2025-10-31T20:00:03.000384","MEAN_MOTION":15.27537573,"ECCENTRICITY":0.0001704,"INCLINATION":43.0032,"RA_OF_ASC_NODE":100.2446,"ARG_OF_PERICENTER":276.1079,"MEAN_ANOMALY":114.6625,"EPHEMERIS_TYPE":0,"CLASSIFICATION_TYPE":"U","NORAD_CAT_ID":59192,"ELEMENT_SET_NO":999,"REV_AT_EPOCH":588,"BSTAR":0.0024277,"MEAN_MOTION_DOT":0.00067065,"MEAN_MOTION_DDOT":0},{"OBJECT_NAME":"STARLINK-31548","OBJECT_ID":"2024-045R","EPOCH":"2025-10-31T17:24:24.243840","MEAN_MOTION":15.27594921,"ECCENTRICITY":0.0001629,"INCLINATION":42.9984,"RA_OF_ASC_NODE":101.2355,"ARG_OF_PERICENTER":271.9984,"MEAN_ANOMALY":88.0681,"EPHEMERIS_TYPE":0,"CLASSIFICATION_TYPE":"U","NORAD_CAT_ID":59193,"ELEMENT_SET_NO":999,"REV_AT_EPOCH":9343,"BSTAR":-1.4166e-5,"MEAN_MOTION_DOT":-6.52e-6,"MEAN_MOTION_DDOT":0},{"OBJECT_NAME":"STARLINK-31542","OBJECT_ID":"2024-045S","EPOCH":"2025-10-31T19:09:27.116928","MEAN_MOTION":15.27591533,"ECCENTRICITY":0.0001542,"INCLINATION":42.9999,"RA_OF_ASC_NODE":100.0624,"ARG_OF_PERICENTER":275.2863,"MEAN_ANOMALY":84.7813,"EPHEMERIS_TYPE":0,"CLASSIFICATION_TYPE":"U","NORAD_CAT_ID":59194,"ELEMENT_SET_NO":999,"REV_AT_EPOCH":9345,"BSTAR":-5.088e-5,"MEAN_MOTION_DOT":-1.663e-5,"MEAN_MOTION_DDOT":0},{"OBJECT_NAME":"STARLINK-31554","OBJECT_ID":"2024-045T","EPOCH":"2025-10-31T17:04:03.588096","MEAN_MOTION":15.27577162,"ECCENTRICITY":0.0001709,"INCLINATION":43.0008,"RA_OF_ASC_NODE":101.1228,"ARG_OF_PERICENTER":269.5948,"MEAN_ANOMALY":90.4708,"EPHEMERIS_TYPE":0,"CLASSIFICATION_TYPE":"U","NORAD_CAT_ID":59195,"ELEMENT_SET_NO":999,"REV_AT_EPOCH":9343,"BSTAR":1.7459e-5,"MEAN_MOTION_DOT":2.18e-6,"MEAN_MOTION_DDOT":0},{"OBJECT_NAME":"STARLINK-31558","OBJECT_ID":"2024-045U","EPOCH":"2025-10-31T19:15:00.158688","MEAN_MOTION":15.27591739,"ECCENTRICITY":0.0001497,"INCLINATION":43.0003,"RA_OF_ASC_NODE":100.0929,"ARG_OF_PERICENTER":278.1954,"MEAN_ANOMALY":81.8727,"EPHEMERIS_TYPE":0,"CLASSIFICATION_TYPE":"U","NORAD_CAT_ID":59196,"ELEMENT_SET_NO":999,"REV_AT_EPOCH":9346,"BSTAR":-0.00010385,"MEAN_MOTION_DOT":-3.12e-5,"MEAN_MOTION_DDOT":0},{"OBJECT_NAME":"STARLINK-31275","OBJECT_ID":"2024-045V","EPOCH":"2025-10-31T17:09:36.361152","MEAN_MOTION":15.27590811,"ECCENTRICITY":0.0001956,"INCLINATION":43.0022,"RA_OF_ASC_NODE":101.1542,"ARG_OF_PERICENTER":266.3626,"MEAN_ANOMALY":93.7002,"EPHEMERIS_TYPE":0,"CLASSIFICATION_TYPE":"U","NORAD_CAT_ID":59197,"ELEMENT_SET_NO":999,"REV_AT_EPOCH":9343,"BSTAR":-4.5776e-5,"MEAN_MOTION_DOT":-1.522e-5,"MEAN_MOTION_DDOT":0},{"OBJECT_NAME":"STARLINK-31590","OBJECT_ID":"2024-045W","EPOCH":"2025-10-31T17:20:42.563904","MEAN_MOTION":15.27585359,"ECCENTRICITY":0.0001235,"INCLINATION":43.0042,"RA_OF_ASC_NODE":101.2148,"ARG_OF_PERICENTER":253.491,"MEAN_ANOMALY":106.5806,"EPHEMERIS_TYPE":0,"CLASSIFICATION_TYPE":"U","NORAD_CAT_ID":59198,"ELEMENT_SET_NO":999,"REV_AT_EPOCH":9343,"BSTAR":0.00015954,"MEAN_MOTION_DOT":4.131e-5,"MEAN_MOTION_DDOT":0},{"OBJECT_NAME":"STARLINK-31567","OBJECT_ID":"2024-045X","EPOCH":"2025-10-31T11:44:35.271168","MEAN_MOTION":15.27575949,"ECCENTRICITY":0.0001051,"INCLINATION":43.0025,"RA_OF_ASC_NODE":102.0467,"ARG_OF_PERICENTER":276.421,"MEAN_ANOMALY":83.6522,"EPHEMERIS_TYPE":0,"CLASSIFICATION_TYPE":"U","NORAD_CAT_ID":59199,"ELEMENT_SET_NO":999,"REV_AT_EPOCH":9340,"BSTAR":3.6472e-6,"MEAN_MOTION_DOT":-1.62e-6,"MEAN_MOTION_DDOT":0},{"OBJECT_NAME":"STARLINK-31503","OBJECT_ID":"2024-045Y","EPOCH":"2025-10-31T11:50:08.210112","MEAN_MOTION":15.27578413,"ECCENTRICITY":0.000127,"INCLINATION":43.0052,"RA_OF_ASC_NODE":102.0755,"ARG_OF_PERICENTER":274.7855,"MEAN_ANOMALY":85.2851,"EPHEMERIS_TYPE":0,"CLASSIFICATION_TYPE":"U","NORAD_CAT_ID":59200,"ELEMENT_SET_NO":999,"REV_AT_EPOCH":9340,"BSTAR":1.9871e-5,"MEAN_MOTION_DOT":2.85e-6,"MEAN_MOTION_DDOT":0},{"OBJECT_NAME":"STARLINK-31603","OBJECT_ID":"2024-046A","EPOCH":"2025-10-31T13:11:19.583808","MEAN_MOTION":15.30181637,"ECCENTRICITY":0.000115,"INCLINATION":53.1601,"RA_OF_ASC_NODE":35.4673,"ARG_OF_PERICENTER":74.0387,"MEAN_ANOMALY":286.074,"EPHEMERIS_TYPE":0,"CLASSIFICATION_TYPE":"U","NORAD_CAT_ID":59201,"ELEMENT_SET_NO":999,"REV_AT_EPOCH":9327,"BSTAR":-4.8081e-5,"MEAN_MOTION_DOT":-1.782e-5,"MEAN_MOTION_DDOT":0},{"OBJECT_NAME":"STARLINK-31602","OBJECT_ID":"2024-046B","EPOCH":"2025-10-31T15:26:15.105696","MEAN_MOTION":15.30185902,"ECCENTRICITY":0.0001295,"INCLINATION":53.1622,"RA_OF_ASC_NODE":34.6275,"ARG_OF_PERICENTER":59.8414,"MEAN_ANOMALY":300.2715,"EPHEMERIS_TYPE":0,"CLASSIFICATION_TYPE":"U","NORAD_CAT_ID":59202,"ELEMENT_SET_NO":999,"REV_AT_EPOCH":9329,"BSTAR":-1.5109e-5,"MEAN_MOTION_DOT":-8.06e-6,"MEAN_MOTION_DDOT":0},{"OBJECT_NAME":"STARLINK-31577","OBJECT_ID":"2024-046C","EPOCH":"2025-10-31T20:00:03.000384","MEAN_MOTION":15.30174511,"ECCENTRICITY":9.04e-5,"INCLINATION":53.1584,"RA_OF_ASC_NODE":33.4943,"ARG_OF_PERICENTER":73.3044,"MEAN_ANOMALY":22.8461,"EPHEMERIS_TYPE":0,"CLASSIFICATION_TYPE":"U","NORAD_CAT_ID":59203,"ELEMENT_SET_NO":999,"REV_AT_EPOCH":591,"BSTAR":0.00053909,"MEAN_MOTION_DOT":0.00015628,"MEAN_MOTION_DDOT":0},{"OBJECT_NAME":"STARLINK-31522","OBJECT_ID":"2024-046D","EPOCH":"2025-10-31T16:16:24.570624","MEAN_MOTION":15.30171824,"ECCENTRICITY":9.48e-5,"INCLINATION":53.1614,"RA_OF_ASC_NODE":34.8463,"ARG_OF_PERICENTER":78.6791,"MEAN_ANOMALY":281.4316,"EPHEMERIS_TYPE":0,"CLASSIFICATION_TYPE":"U","NORAD_CAT_ID":59204,"ELEMENT_SET_NO":999,"REV_AT_EPOCH":9329,"BSTAR":-5.1246e-5,"MEAN_MOTION_DOT":-1.875e-5,"MEAN_MOTION_DDOT":0},{"OBJECT_NAME":"STARLINK-31586","OBJECT_ID":"2024-046E","EPOCH":"2025-10-31T15:39:55.296576","MEAN_MOTION":15.30174618,"ECCENTRICITY":0.0001124,"INCLINATION":53.1609,"RA_OF_ASC_NODE":34.6847,"ARG_OF_PERICENTER":100.9764,"MEAN_ANOMALY":259.1363,"EPHEMERIS_TYPE":0,"CLASSIFICATION_TYPE":"U","NORAD_CAT_ID":59205,"ELEMENT_SET_NO":999,"REV_AT_EPOCH":9329,"BSTAR":-9.6863e-5,"MEAN_MOTION_DOT":-3.224e-5,"MEAN_MOTION_DDOT":0}]
