STARLINK-31498          
1 59189U 24045M   25304.71885341 -.00002309  00000+0 -74403-4 0  9995
2 59189  43.0005 101.1850 0001647 268.9405  91.1258 15.27574657 93438
STARLINK-31563          
1 59190U 24045N   25304.81238347 -.00005064  00000+0 -17461-3 0  9997
2 59190  43.0031 100.1726 0001198 264.4067  95.6648 15.27584091 93453
STARLINK-31551          
1 59191U 24045P   25304.80129208 -.00002124  00000+0 -67661-4 0  9994
2 59191  43.0006  96.6569 0001178 269.3212  90.7505 15.27588608 93494
STARLINK-31536          
1 59192U 24045Q   25304.83336806  .00067065  00000+0  24277-2 0  9999
2 59192  43.0032 100.2446 0001704 276.1079 114.6625 15.27537573  5882
STARLINK-31548          
1 59193U 24045R   25304.72528060 -.00000652  00000+0 -14166-4 0  9992
2 59193  42.9984 101.2355 0001629 271.9984  88.0681 15.27594921 93435
STARLINK-31542          
1 59194U 24045S   25304.79823052 -.00001663  00000+0 -50880-4 0  9995
2 59194  42.9999 100.0624 0001542 275.2863  84.7813 15.27591533 93453
STARLINK-31554          
1 59195U 24045T   25304.71115264  .00000218  00000+0  17459-4 0  9995
2 59195  43.0008 101.1228 0001709 269.5948  90.4708 15.27577162 93431
STARLINK-31558          
1 59196U 24045U   25304.80208517 -.00003120  00000+0 -10385-3 0  9997
2 59196  43.0003 100.0929 0001497 278.1954  81.8727 15.27591739 93464
STARLINK-31275          
1 59197U 24045V   25304.71500418 -.00001522  00000+0 -45776-4 0  9990
2 59197  43.0022 101.1542 0001956 266.3626  93.7002 15.27590811 93439
STARLINK-31590          
1 59198U 24045W   25304.72271486  .00004131  00000+0  15954-3 0  9993
2 59198  43.0042 101.2148 0001235 253.4910 106.5806 15.27585359 93434
STARLINK-31567          
1 59199U 24045X   25304.48929712 -.00000162  00000+0  36472-5 0  9990
2 59199  43.0025 102.0467 0001051 276.4210  83.6522 15.27575949 93404
STARLINK-31503          
1 59200U 24045Y   25304.49315058  .00000285  00000+0  19871-4 0  9994
2 59200  43.0052 102.0755 0001270 274.7855  85.2851 15.27578413 93408
STARLINK-31603          
1 59201U 24046A   25304.54953222 -.00001782  00000+0 -48081-4 0  9993
2 59201  53.1601  35.4673 0001150  74.0387 286.0740 15.30181637 93272
STARLINK-31602          
1 59202U 24046B   25304.64323039 -.00000806  00000+0 -15109-4 0  9993
2 59202  53.1622  34.6275 0001295  59.8414 300.2715 15.30185902 93299
STARLINK-31577          
1 59203U 24046C   25304.83336806  .00015628  00000+0  53909-3 0  9996
2 59203  53.1584  33.4943 0000904  73.3044  22.8461 15.30174511  5913
STARLINK-31522          
1 59204U 24046D   25304.67806216 -.00001875  00000+0 -51246-4 0  9990
2 59204  53.1614  34.8463 0000948  78.6791 281.4316 15.30171824 93299
STARLINK-31586          
1 59205U 24046E   25304.65272334 -.00003224  00000+0 -96863-4 0  9991
2 59205  53.1609  34.6847 0001124 100.9764 259.1363 15.30174618 93292
